OSCAR III [-]           
1 01293U 65016F   09010.92737981 -.00000019  00000-0  21502-4 0  4427
2 01293  70.0727 151.2742 0017262  11.8286 348.3228 14.04681215237729
AO-5 [-]                
1 04321U 70008B   09010.97368809 -.00000032  00000-0  10000-3 0  1111
2 04321 102.1308  19.1075 0027720 277.5789  82.2133 12.52155627781082
AO-6 [-]                
1 06236U 72082B   09010.95473804 -.00000027  00000-0  10000-3 0  1037
2 06236 101.4036  30.6458 0003636 198.6533 161.4407 12.53076219657718
AO-7 [P]                
1 07530U 74089B   09010.94994203 -.00000027  00000-0  10000-3 0  3755
2 07530 101.4449  41.3072 0011847 216.0983 143.9290 12.53574962563014
AO-8 [-]                
1 10703U 78026B   09011.19837778  .00000013  00000-0  38574-4 0  3770
2 10703  98.8560  61.9931 0005929 238.6426 121.4157 13.98825753574079
AO-10 [-]               
1 14129U 83058B   09010.93735966 -.00000169  00000-0  10000-3 0  6076
2 14129  26.0242 176.9039 5963319 188.8199 152.3507  2.05870100164412
UO-11 [P]               
1 14781U 84021B   09010.92553542 -.00000217  00000-0 -21697-4 0  8609
2 14781  98.1309  53.7763 0010042 121.3349 238.8852 14.79686848334573
FO-12 [-]               
1 16909U 86061B   09011.23653690 -.00000083  00000-0  10000-3 0  4970
2 16909  50.0176 284.3936 0011070 165.6947 194.4203 12.44452290 19431
UO-14 [-]               
1 20437U 90005B   09011.35335220 -.00000000  00000-0  15587-4 0  8231
2 20437  98.3176 335.8464 0009970 277.7212  82.2845 14.31534091990613
UO-15 [-]               
1 20438U 90005C   09010.95897463  .00000005  00000-0  18036-4 0  3274
2 20438  98.3773 327.7592 0009463 307.9500  52.0823 14.30437459989991
AO-16 [P]               
1 20439U 90005D   09010.90073715  .00000046  00000-0  32752-4 0  5083
2 20439  98.2578 346.6397 0010008 280.8902  79.1174 14.31813639990641
DO-17 [-]               
1 20440U 90005E   09011.49369204  .00000043  00000-0  31042-4 0  2187
2 20440  98.2334 352.2923 0010071 274.3253  85.6790 14.32116671990861
WO-18 [-]               
1 20441U 90005F   09010.84227789  .00000029  00000-0  26233-4 0  7249
2 20441  98.2402 350.2669 0010768 280.8287  79.1691 14.31881465990705
LO-19 [P]               
1 20442U 90005G   09010.91368570  .00000003  00000-0  16285-4 0  4337
2 20442  98.2221 354.5035 0011036 277.1115  82.8805 14.32050363990802
FO-20 [-]               
1 20480U 90013C   09010.86270977 -.00000015  00000-0  35171-4 0   330
2 20480  99.0589 320.8248 0540568 166.4011 195.2334 12.83359331886726
AO-21 [-]               
1 21087U 91006A   09010.77837885  .00000037  00000-0  22872-4 0  1668
2 21087  82.9424 162.6170 0035593   5.7873 354.3683 13.75039244900781
RS-12 & RS-13 [-]       
1 21089U 91007A   09010.58723781  .00000011  00000-0 -48045-5 0   459
2 21089  82.9201  23.6042 0030715  50.2483 310.1383 13.74483644899547
UO-22 [-]               
1 21575U 91050B   09010.97318894 -.00000011  00000-0  10296-4 0  4567
2 21575  98.4264 322.2625 0008187 127.6762 232.5185 14.39661228918086
KO-23 [-]               
1 22077U 92052B   09010.79236200 -.00000037  00000-0  10000-3 0  6368
2 22077  66.0864 296.2948 0010236 316.9842  43.0367 12.86446649771272
AO-24 [-]               
1 22654U 93031B   09010.94197677 -.00000120  00000-0  10000-3 0  2255
2 22654   5.1967 340.3955 2881627 151.5666 228.0520  1.42205249 76889
AO-27 [+]               
1 22825U 93061C   09010.91148391 -.00000074  00000-0 -12451-4 0  1514
2 22825  98.4161 329.4671 0008734  14.1260 346.0183 14.29255902797443
IO-26 [P]               
1 22826U 93061D   09011.55924202  .00000020  00000-0  24475-4 0  8682
2 22826  98.4090 330.9104 0009290   8.3105 351.8221 14.29506869797633
KO-25 [-]               
1 22828U 93061F   09010.50674351 -.00000042  00000-0  15444-6 0   860
2 22828  98.4022 329.8358 0009727 345.4975  14.5919 14.29808319765753
PO-28 [+]               
1 22829U 93061G   09009.06517938 -.00000043  00000-0 -16919-6 0  1228
2 22829  98.3962 329.5687 0009691 346.2613  13.8313 14.30205940797552
RS-15 [P]               
1 23439U 94085A   09010.90701060 -.00000039  00000-0  10000-3 0  1797
2 23439  64.8135 159.1497 0145976  82.3365 279.4108 11.27553513578380
FO-29 [P]               
1 24278U 96046B   09011.22452710 -.00000005  00000-0  30340-4 0  9486
2 24278  98.5770 266.1600 0351064  37.0780 325.4068 13.52941584612522
MO-30 [-]               
1 24305U 96052B   09011.19734500  .00000017  00000-0  27057-5 0    92
2 24305  82.9360 110.1632 0029474 334.1477  25.8204 13.73565723619125
TO-31 [-]               
1 25396U 98043C   09010.79109405 -.00000040  00000-0  33906-6 0  3035
2 25396  98.3517  46.8128 0002370 354.4075   5.7090 14.23769507545907
GO-32 [P]               
1 25397U 98043D   09011.14851935 -.00000188  00000-0 -65179-4 0  7941
2 25397  98.3431  41.7870 0001440  32.0888 328.0382 14.23152680545799
SO-33 [P]               
1 25509U 98061B   09010.92768479  .00000250  00000-0  39609-4 0  3663
2 25509  31.4297 221.7146 0354168  43.5004 319.3008 14.28236199533331
PO-34 [-]               
1 25520U 98064B   09010.92330874  .00000462  00000-0  12955-4 0  1649
2 25520  28.4602 227.9224 0005279  31.8287 328.2625 15.17282788564741
ARISS [+]               
1 25544U 98067A   09011.54682829  .00010420  00000-0  81896-4 0   472
2 25544  51.6431  28.7250 0006594 182.7579 316.6341 15.72160488581313
SO-35 [-]               
1 25636U 99008C   09011.52920124  .00000021  00000-0  13673-4 0  2051
2 25636  96.4583 233.3130 0148435 358.6437   1.4337 14.43452809520505
UO-36 [-]               
1 25693U 99021A   09010.83339205 -.00000067  00000-0  10283-4 0  8181
2 25693  64.5573 239.2568 0022799 211.4822 148.4887 14.78734521524576
OO-38 [-]               
1 26063U 00004C   09011.43567476 -.00000026  00000-0  11256-4 0  4065
2 26063 100.1888 129.5672 0036872 343.4026  16.5945 14.35853233469450
SO-41 [-]               
1 26545U 00057A   09010.90634606 -.00000093  00000-0  73452-5 0  1595
2 26545  64.5577 242.2022 0049679 302.9999  56.6324 14.80555577447916
MO-46 [-]               
1 26548U 00057D   09010.89071785  .00000082  00000-0  28116-4 0  2942
2 26548  64.5576 207.5419 0046831 295.3720  64.2553 14.83331475448626
SO-42 [-]               
1 26549U 00057E   09010.88238834 -.00000137  00000-0  16090-5 0  2347
2 26549  64.5586 258.0518 0052113 307.9646  51.6720 14.79412330447592
AO-40 [-]               
1 26609U 00072B   09010.43634689 -.00000023  00000-0  10000-3 0  1773
2 26609   8.4743  38.8060 7942978 164.1250 255.8613  1.25584270 37645
NO-44 [P]               
1 26931U 01043C   09011.35771382 -.00000221  00000-0 -54099-4 0   715
2 26931  67.0518 108.3747 0005862 258.0973 101.9453 14.29543055380164
NO-45 [-]               
1 26932U 01043D   09011.53696159 -.00000032  00000-0  19990-4 0   736
2 26932  67.0552 107.8256 0007825 250.7058 109.3197 14.29600455380239
BO-47 & BO-48 [-]       
1 27422U 02021B   09011.34210098  .00000063  00000-0  42393-4 0  9466
2 27422  98.5379  94.1446 0012125 327.4931  32.5502 14.28476462347014
AO-49 [-]               
1 27605U 02058A   09010.76758909 -.00000053  00000-0  13922-4 0  8142
2 27605  64.5569 131.0238 0081211 239.3870 119.9233 14.72381626325761
SO-50 [+]               
1 27607U 02058C   09010.84900235  .00000043  00000-0  28719-4 0  7882
2 27607  64.5574 142.9499 0081517 239.1110 120.2002 14.71407746325527
DTUSAT [-]              
1 27842U 03031C   09010.59100943  .00000015  00000-0  27004-4 0  4629
2 27842  98.7086  22.9625 0008845 216.3369 143.7206 14.20962377286969
CO-55 [+]               
1 27844U 03031E   09010.71963960  .00000026  00000-0  32514-4 0  4850
2 27844  98.7155  22.0973 0009127 236.1117 123.9180 14.20616525286906
AAU CUBESAT [-]         
1 27846U 03031G   09010.59064686  .00000004  00000-0  21854-4 0  4014
2 27846  98.7081  22.9560 0009027 215.3032 144.7528 14.20962880286962
CANX-1 [-]              
1 27847U 03031H   09010.52693474  .00000022  00000-0  30139-4 0  4130
2 27847  98.7086  22.8869 0009030 215.9316 144.1249 14.20947035286907
CO-57 [+]               
1 27848U 03031J   09010.53450422  .00000032  00000-0  35503-4 0  4328
2 27848  98.7160  20.9813 0009156 242.0553 117.9699 14.20422027286841
RS-22 [+]               
1 27939U 03042A   09010.72070597  .00000056  00000-0  19656-4 0  6917
2 27939  97.9667 251.0977 0012611 270.5869  89.3887 14.63287060282546
AO-51 [+]               
1 28375U 04025K   09010.92793247 -.00000000  00000-0  12832-4 0  2892
2 28375  98.0570  29.6613 0082932 242.7564 116.5152 14.40629948238312
VO-52 [+]               
1 28650U 05017B   09011.29506383  .00000449  00000-0  63435-4 0  1265
2 28650  97.7658  77.9031 0027253 179.4598 180.6640 14.81543650199410
UWE-1 [-]               
1 28892U 05043C   09010.72082957  .00000082  00000-0  26784-4 0  2399
2 28892  98.0760 265.1154 0018331 118.8745 241.4328 14.59696601170879
XO-53 [-]               
1 28894U 05043E   09011.56789282  .00000010  00000-0  11734-4 0  3604
2 28894  98.0759 266.1924 0018335 117.7430 242.5632 14.59650279171005
CO-58 [+]               
1 28895U 05043F   09011.23190227  .00000049  00000-0  19737-4 0  2077
2 28895  98.0801 266.0676 0019045 117.9289 242.3835 14.59731530170833
NCUBE-2 [-]             
1 28897U 05043H   09011.24033272  .00000111  00000-0  32619-4 0  7468
2 28897  98.0758 265.9914 0017874 117.7139 242.5869 14.59907605163120
CO-56 [P]               
1 28941U 06005C   09011.35377419  .00031190  28409-5  17244-3 0  7143
2 28941  98.1243 158.6531 0126870 359.0001   1.1059 15.69196569162545
PEHUENSAT 1 [+]         
1 29712U 07001D   09011.21605037  .00000530  00000-0  76003-4 0  1365
2 29712  97.8513  71.2270 0015235  67.3218 292.9600 14.80406921108246
DO-64 [+]               
1 32789U 08021G   09011.21148897  .00000607  00000-0  84017-4 0  2621
2 32789  97.9690  76.3216 0015820 178.4009 181.7257 14.81586039 38200
